CTC2_L_00552001-01
1 10000U 25997GG  26075.70048611  .00000000  00000+0  00000-0 0  9999
2 10000  98.5000   0.0000 0000000   0.0000   0.0000 14.32916105    18
CTC2_L_00552002-01
1 10001U 25180YM  26075.70048611  .00000000  00000+0  00000-0 0  9994
2 10001  98.5000  12.0000 0000000   0.0000  48.0000 14.32916105    14
CTC2_L_00552003-01
1 10002U 26489BG  26075.70048611  .00000000  00000+0  00000-0 0  9998
2 10002  98.5000  24.0000 0000000   0.0000  96.0000 14.32916105    11
CTC2_L_00552004-01
1 10003U 25858XA  26075.70048611  .00000000  00000+0  00000-0 0  9998
2 10003  98.5000  36.0000 0000000   0.0000 144.0000 14.32916105    19
CTC2_L_00552005-01
1 10004U 22328GL  26075.70048611  .00000000  00000+0  00000-0 0  9998
2 10004  98.5000  48.0000 0000000   0.0000 192.0000 14.32916105    16
CTC2_L_00552006-01
1 10005U 25849PU  26075.70048611  .00000000  00000+0  00000-0 0  9990
2 10005  98.5000  60.0000 0000000   0.0000 240.0000 14.32916105    15
CTC2_L_00552007-01
1 10006U 25340FQ  26075.70048611  .00000000  00000+0  00000-0 0  9997
2 10006  98.5000  72.0000 0000000   0.0000 288.0000 14.32916105    11
CTC2_L_00552008-01
1 10007U 26011HS  26075.70048611  .00000000  00000+0  00000-0 0  9994
2 10007  98.5000  84.0000 0000000   0.0000 336.0000 14.32916105    19
CTC2_L_00552009-01
1 10008U 23736WT  26075.70048611  .00000000  00000+0  00000-0 0  9996
2 10008  98.5000  96.0000 0000000   0.0000  24.0000 14.32916105    17
CTC2_L_00552010-01
1 10009U 26466EQ  26075.70048611  .00000000  00000+0  00000-0 0  9990
2 10009  98.5000 108.0000 0000000   0.0000  72.0000 14.32916105    15
CTC2_L_00552011-01
1 10010U 24211VZ  26075.70048611  .00000000  00000+0  00000-0 0  9998
2 10010  98.5000 120.0000 0000000   0.0000 120.0000 14.32916105    15
CTC2_L_00552012-01
1 10011U 24516UO  26075.70048611  .00000000  00000+0  00000-0 0  9997
2 10011  98.5000 132.0000 0000000   0.0000 168.0000 14.32916105    11
CTC2_L_00552013-01
1 10012U 25046AA  26075.70048611  .00000000  00000+0  00000-0 0  9997
2 10012  98.5000 144.0000 0000000   0.0000 216.0000 14.32916105    19
CTC2_L_00552014-01
1 10013U 26661UJ  26075.70048611  .00000000  00000+0  00000-0 0  9992
2 10013  98.5000 156.0000 0000000   0.0000 264.0000 14.32916105    16
CTC2_L_00552015-01
1 10014U 22993ZN  26075.70048611  .00000000  00000+0  00000-0 0  9997
2 10014  98.5000 168.0000 0000000   0.0000 312.0000 14.32916105    14
CTC2_L_00552016-01
1 10015U 25041UW  26075.70048611  .00000000  00000+0  00000-0 0  9995
2 10015  98.5000 180.0000 0000000   0.0000   0.0000 14.32916105    13
CTC2_L_00552017-01
1 10016U 25771VB  26075.70048611  .00000000  00000+0  00000-0 0  9996
2 10016  98.5000 192.0000 0000000   0.0000  48.0000 14.32916105    19
CTC2_L_00552018-01
1 10017U 24544QP  26075.70048611  .00000000  00000+0  00000-0 0  9994
2 10017  98.5000 204.0000 0000000   0.0000  96.0000 14.32916105    17
CTC2_L_00552019-01
1 10018U 22084SB  26075.70048611  .00000000  00000+0  00000-0 0  9992
2 10018  98.5000 216.0000 0000000   0.0000 144.0000 14.32916105    15
CTC2_L_00552020-01
1 10019U 25512NN  26075.70048611  .00000000  00000+0  00000-0 0  9992
2 10019  98.5000 228.0000 0000000   0.0000 192.0000 14.32916105    12
CTC2_L_00552021-01
1 10020U 23132SQ  26075.70048611  .00000000  00000+0  00000-0 0  9990
2 10020  98.5000 240.0000 0000000   0.0000 240.0000 14.32916105    12
CTC2_L_00552022-01
1 10021U 25611BT  26075.70048611  .00000000  00000+0  00000-0 0  9995
2 10021  98.5000 252.0000 0000000   0.0000 288.0000 14.32916105    18
CTC2_L_00552023-01
1 10022U 25089EY  26075.70048611  .00000000  00000+0  00000-0 0  9995
2 10022  98.5000 264.0000 0000000   0.0000 336.0000 14.32916105    16
CTC2_L_00552024-01
1 10023U 25701XX  26075.70048611  .00000000  00000+0  00000-0 0  9997
2 10023  98.5000 276.0000 0000000   0.0000  24.0000 14.32916105    14
CTC2_L_00552025-01
1 10024U 22569OL  26075.70048611  .00000000  00000+0  00000-0 0  9997
2 10024  98.5000 288.0000 0000000   0.0000  72.0000 14.32916105    11
CTC2_L_00552026-01
1 10025U 26938F   26075.70048611  .00000000  00000+0  00000-0 0  9992
2 10025  98.5000 300.0000 0000000   0.0000 120.0000 14.32916105    11
CTC2_L_00552027-01
1 10026U 23831KS  26075.70048611  .00000000  00000+0  00000-0 0  9992
2 10026  98.5000 312.0000 0000000   0.0000 168.0000 14.32916105    17
CTC2_L_00552028-01
1 10027U 26402WQ  26075.70048611  .00000000  00000+0  00000-0 0  9990
2 10027  98.5000 324.0000 0000000   0.0000 216.0000 14.32916105    15
CTC2_L_00552029-01
1 10028U 26396FX  26075.70048611  .00000000  00000+0  00000-0 0  9993
2 10028  98.5000 336.0000 0000000   0.0000 264.0000 14.32916105    12
CTC2_L_00552030-01
1 10029U 22108FZ  26075.70048611  .00000000  00000+0  00000-0 0  9991
2 10029  98.5000 348.0000 0000000   0.0000 312.0000 14.32916105    10
